CCSDS_OMM_VERS,COMMENT,CREATION_DATE,ORIGINATOR,OBJECT_NAME,OBJECT_ID,CENTER_NAME,REF_FRAME,TIME_SYSTEM,MEAN_ELEMENT_THEORY,EPOCH,MEAN_MOTION,ECCENTRICITY,INCLINATION,RA_OF_ASC_NODE,ARG_OF_PERICENTER,MEAN_ANOMALY,EPHEMERIS_TYPE,CLASSIFICATION_TYPE,NORAD_CAT_ID,ELEMENT_SET_NO,REV_AT_EPOCH,BSTAR,MEAN_MOTION_DOT,MEAN_MOTION_DDOT,SEMIMAJOR_AXIS,PERIOD,APOAPSIS,PERIAPSIS,OBJECT_TYPE,RCS_SIZE,COUNTRY_CODE,LAUNCH_DATE,SITE,DECAY_DATE,DECAYED,FILE,GP_ID,TLE_LINE0,TLE_LINE1,TLE_LINE2,height_km,latitude,longitude,velocity_kms,id
2.0,GENERATED VIA SPACE-TRACK.ORG API,2022-11-30T07:06:17,18 SPCS,STARLINK-1458,2020-035U,EARTH,TEME,UTC,SGP4,2022-11-30T00:38:33.919872,15.06388343,0.0001566,53.0556,34.1727,66.0062,294.1091,0,U,45675,999,13810,8.6039e-05,1e-05,0.0,6925.384,95.593,548.334,546.165,PAYLOAD,LARGE,US,2020-06-04,AFETR,,0,3674160,219121747,0 STARLINK-1458,1 45675U 20035U   22334.02678148  .00001000  00000-0  86039-4 0  9998,2 45675  53.0556  34.1727 0001566  66.0062 294.1091 15.06388343138105,547.113014530777,4.825343129739292,76.38694959448374,7.590315901695735,5eed7715096e590006985724
2.0,GENERATED VIA SPACE-TRACK.ORG API,2022-11-30T17:18:05,18 SPCS,STARLINK-1143,2020-012B,EARTH,TEME,UTC,SGP4,2022-11-30T09:04:04.772928,15.0641897,0.0002138,53.055,12.5847,60.7671,299.3531,0,U,45179,999,15467,-0.00050905,-7.86e-05,0.0,6925.29,95.591,548.636,545.675,PAYLOAD,LARGE,US,2020-02-17,AFETR,,0,3675646,219172843,0 STARLINK-1143,1 45179U 20012B   22334.37783302 -.00007860  00000-0 -50905-3 0  9993,2 45179  53.0550  12.5847 0002138  60.7671 299.3531 15.06418970154670,550.0611611326885,39.590492298434135,179.32734860930933,7.592214709656276,5eed7715096e590006985725
2.0,GENERATED VIA SPACE-TRACK.ORG API,2022-11-30T07:56:14,18 SPCS,STARLINK-1262,2020-019G,EARTH,TEME,UTC,SGP4,2022-11-30T04:29:27.794400,15.06396912,0.0001787,53.0545,133.4387,69.5357,290.5823,0,U,45366,999,14954,3.8741e-05,2.95e-06,0.0,6925.358,95.592,548.461,545.985,PAYLOAD,LARGE,US,2020-03-18,AFETR,,0,3674478,219129175,0 STARLINK-1262,1 45366U 20019G   22334.18712725  .00000295  00000-0  38741-4 0  9996,2 45366  53.0545 133.4387 0001787  69.5357 290.5823 15.06396912149549,556.6993796984052,-28.294400862998117,16.49656790142709,7.5826153614095775,5eed7715096e590006985726
2.0,GENERATED VIA SPACE-TRACK.ORG API,2022-11-29T20:50:49,18 SPCS,STARLINK-1193,2020-006BJ,EARTH,TEME,UTC,SGP4,2022-11-29T01:51:48.470112,15.06408935,0.000195,53.0551,218.4311,49.1439,310.9719,0,U,45100,999,15666,1.0896e-05,-1.19e-06,0.0,6925.321,95.592,548.537,545.836,PAYLOAD,LARGE,US,2020-01-29,AFETR,,0,3673336,219070152,0 STARLINK-1193,1 45100U 20006BJ  22333.07764433 -.00000119  00000-0  10896-4 0  9995,2 45100  53.0551 218.4311 0001950  49.1439 310.9719 15.06408935156661,551.4556872251251,45.92472701322953,22.188104847902014,7.592119989768006,5eed7715096e590006985727
2.0,GENERATED VIA SPACE-TRACK.ORG API,2022-11-30T15:06:14,18 SPCS,STARLINK-1292,2020-019AL,EARTH,TEME,UTC,SGP4,2022-11-30T09:18:43.519680,15.06397377,0.0001357,53.0537,112.5444,82.133,277.9813,0,U,45394,999,14958,0.00014154,1.827e-05,0.0,6925.357,95.592,548.161,546.282,PAYLOAD,LARGE,US,2020-03-18,AFETR,,0,3675247,219143623,0 STARLINK-1292,1 45394U 20019AL  22334.38800370  .00001827  00000-0  14154-3 0  9996,2 45394  53.0537 112.5444 0001357  82.1330 277.9813 15.06397377149586,553.5222942029905,-20.797683604211045,-10.73423878977667,7.584817332728328,5eed7715096e590006985728
2.0,GENERATED VIA SPACE-TRACK.ORG API,2022-11-30T17:18:05,18 SPCS,STARLINK-1305,2020-019T,EARTH,TEME,UTC,SGP4,2022-11-30T10:46:18.491232,15.06395952,0.0001766,53.0548,132.254,75.6677,284.4508,0,U,45377,999,14958,1.2527e-05,-9.5e-07,0.0,6925.361,95.592,548.449,546.003,PAYLOAD,LARGE,US,2020-03-18,AFETR,,0,3675646,219171115,0 STARLINK-1305,1 45377U 20019T   22334.44882513 -.00000095  00000-0  12527-4 0  9993,2 45377  53.0548 132.2540 0001766  75.6677 284.4508 15.06395952149581,552.3081751093887,51.54954359395756,-92.85841177081865,7.592469748679912,5eed7715096e590006985729
2.0,GENERATED VIA SPACE-TRACK.ORG API,2022-11-30T17:18:05,18 SPCS,STARLINK-1277,2020-019K,EARTH,TEME,UTC,SGP4,2022-11-30T10:39:38.397888,15.06397123,0.0001159,53.0556,132.2828,88.4135,271.6986,0,U,45369,999,14958,-1.4652e-05,-5e-06,0.0,6925.357,95.592,548.025,546.42,PAYLOAD,LARGE,US,2020-03-18,AFETR,,0,3675646,219171114,0 STARLINK-1277,1 45369U 20019K   22334.44419442 -.00000500  00000-0 -14652-4 0  9994,2 45369  53.0556 132.2828 0001159  88.4135 271.6986 15.06397123149587,550.110311116573,39.66764746663106,-60.7996880571177,7.592205532892964,5eed7715096e59000698572a
2.0,GENERATED VIA SPACE-TRACK.ORG API,2022-11-30T17:18:05,18 SPCS,STARLINK-1437,2020-035BK,EARTH,TEME,UTC,SGP4,2022-11-30T12:23:10.315968,15.06396587,0.0001593,53.0554,1.9669,59.6304,300.4843,0,U,45714,999,13901,9.9545e-05,1.201e-05,0.0,6925.359,95.592,548.327,546.121,PAYLOAD,LARGE,US,2020-06-04,AFETR,,0,3675646,219171650,0 STARLINK-1437,1 45714U 20035BK  22334.51609162  .00001201  00000-0  99545-4 0  9995,2 45714  53.0554   1.9669 0001593  59.6304 300.4843 15.06396587139017,552.7705010173167,52.625650334751185,129.2595789246759,7.592197403380908,5eed7715096e59000698572b
2.0,GENERATED VIA SPACE-TRACK.ORG API,2022-01-21T18:21:03,18 SPCS,STARLINK-1204,2020-012AB,EARTH,TEME,UTC,SGP4,2022-01-21T03:21:45.533376,16.26592171,0.0007325,53.0388,261.147,249.8738,251.3658,0,U,45203,999,10755,0.002898,0.09997214,1.1956e-05,6579.851,88.529,206.536,196.896,PAYLOAD,LARGE,US,2020-02-17,AFETR,2022-01-21,1,3279324,194326475,0 STARLINK-1204,1 45203U 20012AB  22021.14011034  .09997214  11956-4  28980-2 0  9996,2 45203  53.0388 261.1470 0007325 249.8738 251.3658 16.26592171107550,,,,,5eed7715096e59000698572c
2.0,GENERATED VIA SPACE-TRACK.ORG API,2022-11-30T17:18:05,18 SPCS,STARLINK-1146,2020-006BC,EARTH,TEME,UTC,SGP4,2022-11-30T08:42:52.061184,15.0639732,0.0001702,53.055,212.6416,59.0375,301.0781,0,U,45094,999,15686,0.00011608,1.448e-05,0.0,6925.357,95.592,548.4,546.043,PAYLOAD,LARGE,US,2020-01-29,AFETR,,0,3675646,219171587,0 STARLINK-1146,1 45094U 20006BC  22334.36310256  .00001448  00000-0  11608-3 0  9996,2 45094  53.0550 212.6416 0001702  59.0375 301.0781 15.06397320156865,554.2726260521385,-21.617376989372325,74.76816080123479,7.5841205802052105,5eed7715096e59000698572d
2.0,GENERATED VIA SPACE-TRACK.ORG API,2022-11-30T15:16:13,18 SPCS,STARLINK-1283,2020-019AF,EARTH,TEME,UTC,SGP4,2022-11-30T09:45:15.049152,15.06411648,0.0001818,53.0532,112.4575,66.7848,293.3332,0,U,45389,999,14985,-3.9701e-05,-8.73e-06,0.0,6925.313,95.591,548.437,545.919,PAYLOAD,LARGE,US,2020-03-18,AFETR,,0,3675324,219145962,0 STARLINK-1283,1 45389U 20019AF  22334.40642418 -.00000873  00000-0 -39701-4 0  9998,2 45389  53.0532 112.4575 0001818  66.7848 293.3332 15.06411648149859,552.0876413719598,50.27249724963581,-91.40980314220654,7.5924026025224665,5eed7715096e59000698572e
2.0,GENERATED VIA SPACE-TRACK.ORG API,2022-11-30T03:22:20,18 SPCS,STARLINK-1241,2020-012T,EARTH,TEME,UTC,SGP4,2022-11-29T13:35:03.832512,15.17716668,0.0002681,53.0488,6.8828,31.5507,328.5648,0,U,45195,999,15468,0.0011817,0.00023891,0.0,6890.88,94.879,514.593,510.898,PAYLOAD,LARGE,US,2020-02-17,AFETR,,0,3673849,219107780,0 STARLINK-1241,1 45195U 20012T   22333.56601658  .00023891  00000-0  11817-2 0  9992,2 45195  53.0488   6.8828 0002681  31.5507 328.5648 15.17716668154682,528.3846540005725,-45.8093755245886,23.476679268207665,7.598425815350116,5eed7715096e59000698572f
2.0,GENERATED VIA SPACE-TRACK.ORG API,2022-11-30T17:18:05,18 SPCS,STARLINK-1216,2020-012H,EARTH,TEME,UTC,SGP4,2022-11-30T11:02:13.682112,15.06404229,0.0001483,53.0543,12.2267,67.2008,292.9138,0,U,45185,999,15463,0.00026053,3.602e-05,0.0,6925.336,95.592,548.228,546.174,PAYLOAD,LARGE,US,2020-02-17,AFETR,,0,3675646,219171846,0 STARLINK-1216,1 45185U 20012H   22334.45988058  .00003602  00000-0  26053-3 0  9999,2 45185  53.0543  12.2267 0001483  67.2008 292.9138 15.06404229154630,548.3841626907342,32.48444148966148,65.98493202568537,7.59253878646888,5eed7715096e590006985730
2.0,GENERATED VIA SPACE-TRACK.ORG API,2022-11-30T17:18:05,18 SPCS,STARLINK-1240,2020-012S,EARTH,TEME,UTC,SGP4,2022-11-30T12:32:27.735936,15.06393228,0.000161,53.0559,11.9338,66.2578,293.8579,0,U,45194,999,15459,1.959e-05,1e-07,0.0,6925.369,95.593,548.349,546.119,PAYLOAD,LARGE,US,2020-02-17,AFETR,,0,3675646,219172097,0 STARLINK-1240,1 45194U 20012S   22334.52254324  .00000010  00000-0  19590-4 0  9998,2 45194  53.0559  11.9338 0001610  66.2578 293.8579 15.06393228154595,550.8263574026396,45.05719175557237,86.07372984070213,7.592640243483288,5eed7715096e590006985731
2.0,GENERATED VIA SPACE-TRACK.ORG API,2022-11-30T17:18:05,18 SPCS,STARLINK-1269,2020-012V,EARTH,TEME,UTC,SGP4,2022-11-30T05:27:50.106528,15.06397773,0.000174,53.0562,13.2614,54.4127,305.7024,0,U,45197,999,15462,0.00014432,1.869e-05,0.0,6925.355,95.592,548.425,546.015,PAYLOAD,LARGE,US,2020-02-17,AFETR,,0,3675646,219171348,0 STARLINK-1269,1 45197U 20012V   22334.22766327  .00001869  00000-0  14432-3 0  9991,2 45197  53.0562  13.2614 0001740  54.4127 305.7024 15.06397773154628,558.5237173746691,-32.607520896871435,-113.87753408323354,7.581464152494176,5eed7715096e590006985732
2.0,GENERATED VIA SPACE-TRACK.ORG API,2022-11-30T17:18:05,18 SPCS,STARLINK-1293,2020-019BD,EARTH,TEME,UTC,SGP4,2022-11-30T08:58:48.773568,15.06400939,0.0001304,53.0561,102.5931,92.2392,267.8746,0,U,45411,999,14972,6.264e-05,6.52e-06,0.0,6925.346,95.592,548.114,546.308,PAYLOAD,LARGE,US,2020-03-18,AFETR,,0,3675646,219171119,0 STARLINK-1293,1 45411U 20019BD  22334.37417562  .00000652  00000-0  62640-4 0  9991,2 45411  53.0561 102.5931 0001304  92.2392 267.8746 15.06400939149723,547.747512213462,25.77433664647217,-73.64202436948393,7.591957196093052,5eed7715096e590006985733
